{
  "type": "FeatureCollection",
  "features": [
    {
      "type": "Feature",
      "properties": {
        "norad_id": 67131,
        "name": "ZIYUAN 3-04 (ZY 3-04)",
        "group": "last-30-days",
        "lat": -57.373158432212385,
        "lon": 86.26249817867236,
        "alt_km": 511.0188675933641,
        "timestamp": "2025-12-26T08:37:53.295207+00:00",
        "meta_object_name": "ZIYUAN 3-04 (ZY 3-04)",
        "meta_object_id": "2025-300A",
        "meta_epoch": "2025-12-21T18:22:34.187808",
        "meta_mean_motion": 15.21179479,
        "meta_eccentricity": 0.00027623,
        "meta_inclination": 97.4922,
        "meta_ra_of_asc_node": 69.8294,
        "meta_arg_of_pericenter": 167.6924,
        "meta_mean_anomaly": 192.438,
        "meta_ephemeris_type": 0,
        "meta_classification_type": "U",
        "meta_norad_cat_id": 67131,
        "meta_element_set_no": 999,
        "meta_rev_at_epoch": 86,
        "meta_bstar": 6.5769783e-05,
        "meta_mean_motion_dot": 1.396e-05,
        "meta_mean_motion_ddot": 0,
        "tle_line1": "1 67131U 25300A   25355.76567347  .00001396  00000+0  65770-4 0  9990",
        "tle_line2": "2 67131  97.4922  69.8294 0002762 167.6924 192.4380 15.21179479   860"
      },
      "geometry": {
        "type": "Point",
        "coordinates": [
          86.26249817867236,
          -57.373158432212385
        ]
      }
    },
    {
      "type": "Feature",
      "properties": {
        "norad_id": 67132,
        "name": "CZ-4B R/B",
        "group": "last-30-days",
        "lat": 40.608921319017284,
        "lon": 68.66160508091757,
        "alt_km": 312.5959675215199,
        "timestamp": "2025-12-26T08:37:53.295220+00:00",
        "meta_object_name": "CZ-4B R/B",
        "meta_object_id": "2025-300B",
        "meta_epoch": "2025-12-18T16:13:04.609056",
        "meta_mean_motion": 15.63831828,
        "meta_eccentricity": 0.01741973,
        "meta_inclination": 97.5563,
        "meta_ra_of_asc_node": 66.966,
        "meta_arg_of_pericenter": 9.3582,
        "meta_mean_anomaly": 351.0851,
        "meta_ephemeris_type": 0,
        "meta_classification_type": "U",
        "meta_norad_cat_id": 67132,
        "meta_element_set_no": 999,
        "meta_rev_at_epoch": 40,
        "meta_bstar": 0.00019566238,
        "meta_mean_motion_dot": 0.00040543,
        "meta_mean_motion_ddot": 2.652968e-06,
        "tle_line1": "1 67132U 25300B   25352.67574779  .00040543  26530-5  19566-3 0  9995",
        "tle_line2": "2 67132  97.5563  66.9660 0174197   9.3582 351.0851 15.63831828   407"
      },
      "geometry": {
        "type": "Point",
        "coordinates": [
          68.66160508091757,
          40.608921319017284
        ]
      }
    },
    {
      "type": "Feature",
      "properties": {
        "norad_id": 67133,
        "name": "KUIPER-00144",
        "group": "last-30-days",
        "lat": -50.67210272469664,
        "lon": -14.027403290692305,
        "alt_km": 468.0689882714496,
        "timestamp": "2025-12-26T08:37:53.295230+00:00",
        "meta_object_name": "KUIPER-00144",
        "meta_object_id": "2025-301A",
        "meta_epoch": "2025-12-26T01:10:02.411328",
        "meta_mean_motion": 15.35438844,
        "meta_eccentricity": 0.0006133,
        "meta_inclination": 51.8703,
        "meta_ra_of_asc_node": 60.9549,
        "meta_arg_of_pericenter": 121.8983,
        "meta_mean_anomaly": 238.2601,
        "meta_ephemeris_type": 0,
        "meta_classification_type": "U",
        "meta_norad_cat_id": 67133,
        "meta_element_set_no": 999,
        "meta_rev_at_epoch": 241,
        "meta_bstar": 0.00064174,
        "meta_mean_motion_dot": 0.00022127,
        "meta_mean_motion_ddot": 0,
        "tle_line1": "1 67133U 25301A   25360.04863902  .00022127  00000+0  64174-3 0  9997",
        "tle_line2": "2 67133  51.8703  60.9549 0006133 121.8983 238.2601 15.35438844  2418"
      },
      "geometry": {
        "type": "Point",
        "coordinates": [
          -14.027403290692305,
          -50.67210272469664
        ]
      }
    },
    {
      "type": "Feature",
      "properties": {
        "norad_id": 67134,
        "name": "KUIPER-00164",
        "group": "last-30-days",
        "lat": -39.06221238132749,
        "lon": 19.798269497127915,
        "alt_km": 463.6569494436262,
        "timestamp": "2025-12-26T08:37:53.295240+00:00",
        "meta_object_name": "KUIPER-00164",
        "meta_object_id": "2025-301B",
        "meta_epoch": "2025-12-26T02:37:02.229312",
        "meta_mean_motion": 15.36144103,
        "meta_eccentricity": 0.000311,
        "meta_inclination": 51.8728,
        "meta_ra_of_asc_node": 60.6091,
        "meta_arg_of_pericenter": 103.7605,
        "meta_mean_anomaly": 256.3728,
        "meta_ephemeris_type": 0,
        "meta_classification_type": "U",
        "meta_norad_cat_id": 67134,
        "meta_element_set_no": 999,
        "meta_rev_at_epoch": 260,
        "meta_bstar": 0.00063151,
        "meta_mean_motion_dot": 0.00022265,
        "meta_mean_motion_ddot": 0,
        "tle_line1": "1 67134U 25301B   25360.10905358  .00022265  00000+0  63151-3 0  9994",
        "tle_line2": "2 67134  51.8728  60.6091 0003110 103.7605 256.3728 15.36144103  2602"
      },
      "geometry": {
        "type": "Point",
        "coordinates": [
          19.798269497127915,
          -39.06221238132749
        ]
      }
    },
    {
      "type": "Feature",
      "properties": {
        "norad_id": 67135,
        "name": "KUIPER-00175",
        "group": "last-30-days",
        "lat": -27.189014903946102,
        "lon": 35.56707193819461,
        "alt_km": 459.5744143151396,
        "timestamp": "2025-12-26T08:37:53.295250+00:00",
        "meta_object_name": "KUIPER-00175",
        "meta_object_id": "2025-301C",
        "meta_epoch": "2025-12-26T02:32:31.087968",
        "meta_mean_motion": 15.36594269,
        "meta_eccentricity": 0.0002336,
        "meta_inclination": 51.8755,
        "meta_ra_of_asc_node": 60.5853,
        "meta_arg_of_pericenter": 51.6047,
        "meta_mean_anomaly": 308.5148,
        "meta_ephemeris_type": 0,
        "meta_classification_type": "U",
        "meta_norad_cat_id": 67135,
        "meta_element_set_no": 999,
        "meta_rev_at_epoch": 249,
        "meta_bstar": 0.0011605,
        "meta_mean_motion_dot": 0.0004195,
        "meta_mean_motion_ddot": 0,
        "tle_line1": "1 67135U 25301C   25360.10591537  .00041950  00000+0  11605-2 0  9993",
        "tle_line2": "2 67135  51.8755  60.5853 0002336  51.6047 308.5148 15.36594269  2493"
      },
      "geometry": {
        "type": "Point",
        "coordinates": [
          35.56707193819461,
          -27.189014903946102
        ]
      }
    },
    {
      "type": "Feature",
      "properties": {
        "norad_id": 67136,
        "name": "KUIPER-00179",
        "group": "last-30-days",
        "lat": -34.67541764995213,
        "lon": 26.475927401654616,
        "alt_km": 462.08037241493,
        "timestamp": "2025-12-26T08:37:53.295260+00:00",
        "meta_object_name": "KUIPER-00179",
        "meta_object_id": "2025-301D",
        "meta_epoch": "2025-12-26T04:08:56.063040",
        "meta_mean_motion": 15.36277524,
        "meta_eccentricity": 0.000276,
        "meta_inclination": 51.8747,
        "meta_ra_of_asc_node": 60.2876,
        "meta_arg_of_pericenter": 75.3192,
        "meta_mean_anomaly": 284.81,
        "meta_ephemeris_type": 0,
        "meta_classification_type": "U",
        "meta_norad_cat_id": 67136,
        "meta_element_set_no": 999,
        "meta_rev_at_epoch": 261,
        "meta_bstar": 0.00075363,
        "meta_mean_motion_dot": 0.00026776,
        "meta_mean_motion_ddot": 0,
        "tle_line1": "1 67136U 25301D   25360.17287110  .00026776  00000+0  75363-3 0  9991",
        "tle_line2": "2 67136  51.8747  60.2876 0002760  75.3192 284.8100 15.36277524  2612"
      },
      "geometry": {
        "type": "Point",
        "coordinates": [
          26.475927401654616,
          -34.67541764995213
        ]
      }
    },
    {
      "type": "Feature",
      "properties": {
        "norad_id": 67137,
        "name": "KUIPER-00181",
        "group": "last-30-days",
        "lat": -44.60962334488023,
        "lon": -69.65890690922134,
        "alt_km": 468.0469326818811,
        "timestamp": "2025-12-26T08:37:53.295272+00:00",
        "meta_object_name": "KUIPER-00181",
        "meta_object_id": "2025-301E",
        "meta_epoch": "2025-12-26T02:53:14.750304",
        "meta_mean_motion": 15.34442054,
        "meta_eccentricity": 0.0010016,
        "meta_inclination": 51.8638,
        "meta_ra_of_asc_node": 60.6852,
        "meta_arg_of_pericenter": 143.1166,
        "meta_mean_anomaly": 217.051,
        "meta_ephemeris_type": 0,
        "meta_classification_type": "U",
        "meta_norad_cat_id": 67137,
        "meta_element_set_no": 999,
        "meta_rev_at_epoch": 258,
        "meta_bstar": 0.0010892,
        "meta_mean_motion_dot": 0.00036737,
        "meta_mean_motion_ddot": 0,
        "tle_line1": "1 67137U 25301E   25360.12030961  .00036737  00000+0  10892-2 0  9990",
        "tle_line2": "2 67137  51.8638  60.6852 0010016 143.1166 217.0510 15.34442054  2587"
      },
      "geometry": {
        "type": "Point",
        "coordinates": [
          -69.65890690922134,
          -44.60962334488023
        ]
      }
    }
  ]
}